*******************************************************************************
Ephemeris / WWW_USER Fri Mar  7 10:13:50 2025 Pasadena, USA      / Horizons    
*******************************************************************************
Target body name: (2018 PN20)                     {source: JPL#3}
Center body name: Earth (399)                     {source: DE441}
Center-site name: Mauna Kea
*******************************************************************************
Start time      : A.D. 2018-Nov-30 03:51:00.0000 UT      
Stop  time      : A.D. 2018-Nov-30 16:29:00.0000 UT      
Step-size       : 1 minutes
*******************************************************************************
Target pole/equ : undefined
Target radii    : undefined                                                    
Center geodetic : 204.5278, 19.8260847, 4.21024   {E-lon(deg),Lat(deg),Alt(km)}
Center cylindric: 204.5278, 6006.35451, 2151.0229 {E-lon(deg),Dxy(km),Dz(km)}
Center pole/equ : ITRF93                          {East-longitude positive}
Center radii    : 6378.137, 6378.137, 6356.752 km {Equator_a, b, pole_c}       
Target primary  : Sun
Vis. interferer : MOON (R_eq= 1737.400) km        {source: DE441}
Rel. light bend : Sun                             {source: DE441}
Rel. lght bnd GM: 1.3271E+11 km^3/s^2                                          
Small-body perts: Yes                             {source: SB441-N16}
Atmos refraction: NO (AIRLESS)
RA format       : HMS
Time format     : CAL 
Calendar mode   : Mixed Julian/Gregorian
RTS-only print  : NO       
EOP file        : eop.250306.p250602                                           
EOP coverage    : DATA-BASED 1962-JAN-20 TO 2025-MAR-06. PREDICTS-> 2025-JUN-01
Units conversion: 1 au= 149597870.700 km, c= 299792.458 km/s, 1 day= 86400.0 s 
Table cut-offs 1: Elevation (-90.0deg=NO ),Airmass (>38.000=NO), Daylight (YES)
Table cut-offs 2: Solar elongation (  0.0,180.0=NO ),Local Hour Angle( 0.0=NO )
Table cut-offs 3: RA/DEC angular rate (     0.0=NO )                           
*******************************************************************************
Initial IAU76/J2000 heliocentric ecliptic osculating elements (au, days, deg.):
  EPOCH=  2458343.5 ! 2018-Aug-13.00 (TDB)         Residual RMS= .1225         
   EC= .3775096637251725   QR= 1.051585063958075   TP= 2458346.3972912203      
   OM= 142.6884316149991   W=  180.4368328240348   IN= 18.91630320954361       
  Equivalent ICRF heliocentric cartesian coordinates (au, au/d):
   X= 8.077039416640637E-01  Y=-6.245728834467501E-01  Z=-2.534674905132982E-01
  VX= 1.177737749455786E-02 VY= 1.576958466977457E-02 VZ=-1.142216194306418E-04
Asteroid physical parameters (km, seconds, rotational period in hours):        
   GM= n.a.                RAD= n.a.               ROTPER= n.a.                
   H= 25.1                 G= .150                 B-V= n.a.                   
                           ALBEDO= n.a.            STYP= n.a.                  
*******************************************************************************
 Date__(UT)__HR:MN     R.A._________(ICRF)_________DEC
******************************************************
$$SOE
 2018-Nov-30 03:51 C   02 33 18.651255 -32 06 52.52696
 2018-Nov-30 03:52 C   02 33 18.651956 -32 06 51.25256
 2018-Nov-30 03:53 C   02 33 18.652641 -32 06 49.97812
 2018-Nov-30 03:54 C   02 33 18.653309 -32 06 48.70362
 2018-Nov-30 03:55 C   02 33 18.653962 -32 06 47.42907
 2018-Nov-30 03:56 C   02 33 18.654599 -32 06 46.15447
 2018-Nov-30 03:57 C   02 33 18.655220 -32 06 44.87982
 2018-Nov-30 03:58 C   02 33 18.655825 -32 06 43.60511
 2018-Nov-30 03:59 C   02 33 18.656414 -32 06 42.33035
 2018-Nov-30 04:00 C   02 33 18.656987 -32 06 41.05554
 2018-Nov-30 04:01 C   02 33 18.657545 -32 06 39.78067
 2018-Nov-30 04:02 C   02 33 18.658086 -32 06 38.50574
 2018-Nov-30 04:03 C   02 33 18.658612 -32 06 37.23076
 2018-Nov-30 04:04 C   02 33 18.659122 -32 06 35.95573
 2018-Nov-30 04:05 C   02 33 18.659617 -32 06 34.68063
 2018-Nov-30 04:06 N   02 33 18.660096 -32 06 33.40548
 2018-Nov-30 04:07 N   02 33 18.660560 -32 06 32.13027
 2018-Nov-30 04:08 N   02 33 18.661007 -32 06 30.85500
 2018-Nov-30 04:09 N   02 33 18.661440 -32 06 29.57968
 2018-Nov-30 04:10 N   02 33 18.661857 -32 06 28.30429
 2018-Nov-30 04:11 N   02 33 18.662258 -32 06 27.02885
 2018-Nov-30 04:12 N   02 33 18.662644 -32 06 25.75334
 2018-Nov-30 04:13 N   02 33 18.663015 -32 06 24.47778
 2018-Nov-30 04:14 N   02 33 18.663370 -32 06 23.20215
 2018-Nov-30 04:15 N   02 33 18.663710 -32 06 21.92646
 2018-Nov-30 04:16 N   02 33 18.664035 -32 06 20.65071
 2018-Nov-30 04:17 N   02 33 18.664345 -32 06 19.37490
 2018-Nov-30 04:18 N   02 33 18.664639 -32 06 18.09902
 2018-Nov-30 04:19 N   02 33 18.664918 -32 06 16.82308
 2018-Nov-30 04:20 N   02 33 18.665183 -32 06 15.54708
 2018-Nov-30 04:21 N   02 33 18.665432 -32 06 14.27101
 2018-Nov-30 04:22 N   02 33 18.665666 -32 06 12.99488
 2018-Nov-30 04:23 N   02 33 18.665885 -32 06 11.71868
 2018-Nov-30 04:24 N   02 33 18.666090 -32 06 10.44241
 2018-Nov-30 04:25 N   02 33 18.666279 -32 06 09.16608
 2018-Nov-30 04:26 N   02 33 18.666454 -32 06 07.88969
 2018-Nov-30 04:27 N   02 33 18.666613 -32 06 06.61322
 2018-Nov-30 04:28 N   02 33 18.666759 -32 06 05.33669
 2018-Nov-30 04:29 N   02 33 18.666889 -32 06 04.06009
 2018-Nov-30 04:30 N   02 33 18.667005 -32 06 02.78342
 2018-Nov-30 04:31 N   02 33 18.667106 -32 06 01.50668
 2018-Nov-30 04:32 N   02 33 18.667192 -32 06 00.22987
 2018-Nov-30 04:33 A   02 33 18.667264 -32 05 58.95300
 2018-Nov-30 04:34 A   02 33 18.667322 -32 05 57.67605
 2018-Nov-30 04:35 A   02 33 18.667365 -32 05 56.39903
 2018-Nov-30 04:36 A   02 33 18.667394 -32 05 55.12194
 2018-Nov-30 04:37 A   02 33 18.667408 -32 05 53.84478
 2018-Nov-30 04:38 A   02 33 18.667408 -32 05 52.56754
 2018-Nov-30 04:39 A   02 33 18.667394 -32 05 51.29023
 2018-Nov-30 04:40 A   02 33 18.667365 -32 05 50.01285
 2018-Nov-30 04:41 A   02 33 18.667323 -32 05 48.73540
 2018-Nov-30 04:42 A   02 33 18.667266 -32 05 47.45787
 2018-Nov-30 04:43 A   02 33 18.667195 -32 05 46.18027
 2018-Nov-30 04:44 A   02 33 18.667111 -32 05 44.90259
 2018-Nov-30 04:45 A   02 33 18.667012 -32 05 43.62484
 2018-Nov-30 04:46 A   02 33 18.666899 -32 05 42.34701
 2018-Nov-30 04:47 A   02 33 18.666773 -32 05 41.06910
 2018-Nov-30 04:48 A   02 33 18.666632 -32 05 39.79112
 2018-Nov-30 04:49 A   02 33 18.666478 -32 05 38.51306
 2018-Nov-30 04:50 A   02 33 18.666310 -32 05 37.23493
 2018-Nov-30 04:51 A   02 33 18.666129 -32 05 35.95671
 2018-Nov-30 04:52 A   02 33 18.665934 -32 05 34.67842
 2018-Nov-30 04:53 A   02 33 18.665725 -32 05 33.40005
 2018-Nov-30 04:54 A   02 33 18.665503 -32 05 32.12160
 2018-Nov-30 04:55 A   02 33 18.665267 -32 05 30.84306
 2018-Nov-30 04:56 A   02 33 18.665018 -32 05 29.56445
 2018-Nov-30 04:57 A   02 33 18.664755 -32 05 28.28576
 2018-Nov-30 04:58 A   02 33 18.664479 -32 05 27.00699
 2018-Nov-30 04:59     02 33 18.664190 -32 05 25.72814
 2018-Nov-30 05:00     02 33 18.663888 -32 05 24.44920
 2018-Nov-30 05:01     02 33 18.663572 -32 05 23.17018
 2018-Nov-30 05:02     02 33 18.663244 -32 05 21.89108
 2018-Nov-30 05:03     02 33 18.662902 -32 05 20.61190
 2018-Nov-30 05:04     02 33 18.662547 -32 05 19.33263
 2018-Nov-30 05:05     02 33 18.662180 -32 05 18.05328
 2018-Nov-30 05:06     02 33 18.661799 -32 05 16.77385
 2018-Nov-30 05:07     02 33 18.661406 -32 05 15.49433
 2018-Nov-30 05:08     02 33 18.660999 -32 05 14.21472
 2018-Nov-30 05:09     02 33 18.660581 -32 05 12.93504
 2018-Nov-30 05:10     02 33 18.660149 -32 05 11.65526
 2018-Nov-30 05:11     02 33 18.659705 -32 05 10.37540
 2018-Nov-30 05:12     02 33 18.659248 -32 05 09.09545
 2018-Nov-30 05:13     02 33 18.658779 -32 05 07.81541
 2018-Nov-30 05:14     02 33 18.658297 -32 05 06.53529
 2018-Nov-30 05:15     02 33 18.657803 -32 05 05.25508
 2018-Nov-30 05:16     02 33 18.657296 -32 05 03.97478
 2018-Nov-30 05:17     02 33 18.656777 -32 05 02.69439
 2018-Nov-30 05:18     02 33 18.656246 -32 05 01.41391
 2018-Nov-30 05:19     02 33 18.655703 -32 05 00.13335
 2018-Nov-30 05:20     02 33 18.655148 -32 04 58.85269
 2018-Nov-30 05:21     02 33 18.654581 -32 04 57.57195
 2018-Nov-30 05:22     02 33 18.654001 -32 04 56.29111
 2018-Nov-30 05:23     02 33 18.653410 -32 04 55.01018
 2018-Nov-30 05:24     02 33 18.652807 -32 04 53.72916
 2018-Nov-30 05:25     02 33 18.652192 -32 04 52.44805
 2018-Nov-30 05:26     02 33 18.651565 -32 04 51.16685
 2018-Nov-30 05:27     02 33 18.650926 -32 04 49.88555
 2018-Nov-30 05:28     02 33 18.650276 -32 04 48.60417
 2018-Nov-30 05:29     02 33 18.649614 -32 04 47.32269
 2018-Nov-30 05:30     02 33 18.648941 -32 04 46.04111
 2018-Nov-30 05:31     02 33 18.648256 -32 04 44.75944
 2018-Nov-30 05:32     02 33 18.647560 -32 04 43.47768
 2018-Nov-30 05:33     02 33 18.646853 -32 04 42.19582
 2018-Nov-30 05:34     02 33 18.646134 -32 04 40.91387
 2018-Nov-30 05:35     02 33 18.645404 -32 04 39.63182
 2018-Nov-30 05:36     02 33 18.644663 -32 04 38.34968
 2018-Nov-30 05:37     02 33 18.643910 -32 04 37.06744
 2018-Nov-30 05:38     02 33 18.643147 -32 04 35.78510
 2018-Nov-30 05:39     02 33 18.642373 -32 04 34.50267
 2018-Nov-30 05:40     02 33 18.641587 -32 04 33.22014
 2018-Nov-30 05:41     02 33 18.640791 -32 04 31.93752
 2018-Nov-30 05:42     02 33 18.639984 -32 04 30.65479
 2018-Nov-30 05:43     02 33 18.639167 -32 04 29.37197
 2018-Nov-30 05:44     02 33 18.638338 -32 04 28.08905
 2018-Nov-30 05:45     02 33 18.637500 -32 04 26.80603
 2018-Nov-30 05:46     02 33 18.636650 -32 04 25.52291
 2018-Nov-30 05:47     02 33 18.635790 -32 04 24.23969
 2018-Nov-30 05:48     02 33 18.634920 -32 04 22.95637
 2018-Nov-30 05:49     02 33 18.634039 -32 04 21.67295
 2018-Nov-30 05:50     02 33 18.633148 -32 04 20.38943
 2018-Nov-30 05:51     02 33 18.632247 -32 04 19.10581
 2018-Nov-30 05:52     02 33 18.631336 -32 04 17.82209
 2018-Nov-30 05:53     02 33 18.630414 -32 04 16.53827
